{"type":"FeatureCollection","features":[{"type":"Feature","geometry":{"type":"Point","coordinates":[8.94,42.63]},"properties":{"edcs_id":"EDCS-04900479","findspot":"L'Ile-Rousse","raw_text":"[[C(ai)]] Caesar(is) Aug(usti) Imp(eratoris) Germ(anicum) TEC() f(ecit)","date_from":47,"date_to":54,"marker_gender":"male","is_individual":true,"edcs_url":"https://edcs.hist.uzh.ch/en/document?edcs-id=EDCS-04900479","persons":[{"nomen":"","gender":"male","raw_name":"C(ai) Caesar(is) Aug(usti) Imp(eratoris) Germ(anicum)","praenomen":"Gaius","cognomen":"Caesar","status":"Augustus, Imperator, Germanicus","is_imperial":true}]}},{"type":"Feature","geometry":{"type":"Point","coordinates":[9.52,42.1]},"properties":{"edcs_id":"EDCS-05000375","findspot":"Aleria","raw_text":"P(ubli) Antei Rufei","date_from":null,"date_to":null,"marker_gender":"male","is_individual":false,"edcs_url":"https://edcs.hist.uzh.ch/en/document?edcs-id=EDCS-05000375","persons":[{"nomen":"Antius","gender":"male","raw_name":"P. Antei Rufei","praenomen":"Publius","cognomen":"Rufus"}]}},{"type":"Feature","geometry":{"type":"Point","coordinates":[9.52,42.1]},"properties":{"edcs_id":"EDCS-05000377","findspot":"Aleria","raw_text":"M(arcus) Sex[3] / Dim[3]","date_from":null,"date_to":null,"marker_gender":"male","is_individual":false,"edcs_url":"https://edcs.hist.uzh.ch/en/document?edcs-id=EDCS-05000377","persons":[{"nomen":"","gender":"male","raw_name":"M. Sex[3]","praenomen":"Marcus"}]}},{"type":"Feature","geometry":{"type":"Point","coordinates":[9.52,42.1]},"properties":{"edcs_id":"EDCS-05000378","findspot":"Aleria","raw_text":"[3] f(ilius?) Scae[vola(?)","date_from":-27,"date_to":6,"marker_gender":"male","is_individual":false,"edcs_url":"https://edcs.hist.uzh.ch/en/document?edcs-id=EDCS-05000378","persons":[{"nomen":"","gender":"male","raw_name":"[3] f(ilius?) Scae[vola(?)","cognomen":"Scaevola","status":"filius"}]}},{"type":"Feature","geometry":{"type":"Point","coordinates":[9.16,41.39]},"properties":{"edcs_id":"EDCS-05000379","findspot":"Bonifacio","raw_text":"Minuciorum // Ap(pi) Iun(i) / Zeth(i)","date_from":22,"date_to":25,"marker_gender":"male","is_individual":false,"edcs_url":"https://edcs.hist.uzh.ch/en/document?edcs-id=EDCS-05000379","persons":[{"nomen":"Iunius","gender":"male","raw_name":"Ap. Iun. Zeth.","praenomen":"Appius","cognomen":"Zethus"}]}},{"type":"Feature","geometry":{"type":"Point","coordinates":[9.16,41.39]},"properties":{"edcs_id":"EDCS-05000381","findspot":"Bonifacio","raw_text":"Q(uinti) C(ai) Anto(niorum)","date_from":null,"date_to":null,"marker_gender":"male","is_individual":false,"edcs_url":"https://edcs.hist.uzh.ch/en/document?edcs-id=EDCS-05000381","persons":[{"nomen":"Antonius","gender":"male","raw_name":"Q. C. Anto.","praenomen":"Quintus"}]}},{"type":"Feature","geometry":{"type":"Point","coordinates":[9.16,41.39]},"properties":{"edcs_id":"EDCS-05000383","findspot":"Bonifacio","raw_text":"M(arci) B() A()","date_from":null,"date_to":null,"marker_gender":"male","is_individual":false,"edcs_url":"https://edcs.hist.uzh.ch/en/document?edcs-id=EDCS-05000383","persons":[{"nomen":"","gender":"male","raw_name":"M. B. A.","praenomen":"Marcus"}]}},{"type":"Feature","geometry":{"type":"Point","coordinates":[9.16,41.39]},"properties":{"edcs_id":"EDCS-05000384","findspot":"Bonifacio","raw_text":"Q(uinti) Anto(ni)","date_from":null,"date_to":null,"marker_gender":"male","is_individual":false,"edcs_url":"https://edcs.hist.uzh.ch/en/document?edcs-id=EDCS-05000384","persons":[{"nomen":"Antonius","gender":"male","raw_name":"Q. Anto.","praenomen":"Quintus"}]}},{"type":"Feature","geometry":{"type":"Point","coordinates":[9.16,41.39]},"properties":{"edcs_id":"EDCS-05000385","findspot":"Bonifacio","raw_text":"T(iti) Iuli Secundi","date_from":null,"date_to":null,"marker_gender":"male","is_individual":false,"edcs_url":"https://edcs.hist.uzh.ch/en/document?edcs-id=EDCS-05000385","persons":[{"nomen":"Iulius","gender":"male","raw_name":"T. Iuli Secundi","praenomen":"Titus","cognomen":"Secundus"}]}},{"type":"Feature","geometry":{"type":"Point","coordinates":[9.16,41.39]},"properties":{"edcs_id":"EDCS-05000386","findspot":"Bonifacio","raw_text":"M(arci) Claud(i)","date_from":null,"date_to":null,"marker_gender":"male","is_individual":false,"edcs_url":"https://edcs.hist.uzh.ch/en/document?edcs-id=EDCS-05000386","persons":[{"nomen":"Claudius","gender":"male","raw_name":"M. Claud.","praenomen":"Marcus"}]}},{"type":"Feature","geometry":{"type":"Point","coordinates":[9.16,41.39]},"properties":{"edcs_id":"EDCS-05000387","findspot":"Bonifacio","raw_text":"C(ai) ME","date_from":null,"date_to":null,"marker_gender":"male","is_individual":false,"edcs_url":"https://edcs.hist.uzh.ch/en/document?edcs-id=EDCS-05000387","persons":[{"nomen":"","gender":"male","raw_name":"C. ME","praenomen":"Gaius"}]}},{"type":"Feature","geometry":{"type":"Point","coordinates":[9.16,41.39]},"properties":{"edcs_id":"EDCS-05000388","findspot":"Bonifacio","raw_text":"C(ai) Do(miti) I()","date_from":null,"date_to":null,"marker_gender":"male","is_individual":false,"edcs_url":"https://edcs.hist.uzh.ch/en/document?edcs-id=EDCS-05000388","persons":[{"nomen":"Domitius","gender":"male","raw_name":"C. Do. I.","praenomen":"Gaius"}]}},{"type":"Feature","geometry":{"type":"Point","coordinates":[9.16,41.39]},"properties":{"edcs_id":"EDCS-05000389","findspot":"Bonifacio","raw_text":"Ausci","date_from":null,"date_to":null,"marker_gender":"male","is_individual":false,"edcs_url":"https://edcs.hist.uzh.ch/en/document?edcs-id=EDCS-05000389","persons":[{"nomen":"","gender":"male","raw_name":"Ausci","cognomen":"Auscus"}]}},{"type":"Feature","geometry":{"type":"Point","coordinates":[9.16,41.39]},"properties":{"edcs_id":"EDCS-05000390","findspot":"Bonifacio","raw_text":"Hil(arus) Ant(oniorum)","date_from":null,"date_to":null,"marker_gender":"male","is_individual":false,"edcs_url":"https://edcs.hist.uzh.ch/en/document?edcs-id=EDCS-05000390","persons":[{"nomen":"Antonius","gender":"male","raw_name":"Hil(arus) Ant(oniorum)","cognomen":"Hilarus"}]}},{"type":"Feature","geometry":{"type":"Point","coordinates":[9.52,42.1]},"properties":{"edcs_id":"EDCS-08600303","findspot":"Aleria","raw_text":"] / fil(io) piiss(imo) / vix(it) ann(os) X m(enses) V / Epaphrodit[us] / pater m(erito?) f(ecit)","date_from":101,"date_to":250,"marker_gender":"male","is_individual":false,"edcs_url":"https://edcs.hist.uzh.ch/en/document?edcs-id=EDCS-08600303","persons":[{"nomen":"","gender":"male","raw_name":"Epaphrodit[us]","cognomen":"Epaphroditus","status":"filius piissimus"}]}},{"type":"Feature","geometry":{"type":"Point","coordinates":[9.33,42.85]},"properties":{"edcs_id":"EDCS-08600309","findspot":"Marinca / Mariana","raw_text":"]ule vindica te qui tibi male f[aciet] qui [3] / [3 v]indica te et si C(aius) Statius tibi nocuit ab eo vind[ica te 3] / [3 persequa]ris(?) eum ut male contabescat usque dum morie[t]ur [et qui]/cumque(?) ali(u)s et si Pollio conscius est et illum persequaris / n<e=I> annum ducat","date_from":1,"date_to":100,"marker_gender":"male","is_individual":false,"edcs_url":"https://edcs.hist.uzh.ch/en/document?edcs-id=EDCS-08600309","persons":[{"nomen":"Statius","gender":"male","raw_name":"C. Statius","praenomen":"Gaius"},{"nomen":"","gender":"male","raw_name":"Pollio","cognomen":"Pollio"}]}},{"type":"Feature","geometry":{"type":"Point","coordinates":[9.52,42.1]},"properties":{"edcs_id":"EDCS-09400447","findspot":"Aleria","raw_text":"] / Prim[3] / prae[f(ecto) alae I] / Batavo(rum) [3] / c(oloni) c(oloniae) V(eneriae) I(uliae) R(estitutae) T(ertianorum) [Aleriae]","date_from":51,"date_to":200,"marker_gender":"male","is_individual":false,"edcs_url":"https://edcs.hist.uzh.ch/en/document?edcs-id=EDCS-09400447","persons":[{"nomen":"","gender":"male","raw_name":"Prim[3]","cognomen":"Primus","status":"praefectus alae"}]}},{"type":"Feature","geometry":{"type":"Point","coordinates":[9.52,42.1]},"properties":{"edcs_id":"EDCS-09701553","findspot":"Aleria","raw_text":"Dis Manibu[s] / T(itus) Plaetoriu[s] Celer fecit / Diodorae Qu/intae coniugi kariss(imae) / vixit ann(os) XXXX h(ic) s(ita) e(st)","date_from":1,"date_to":100,"marker_gender":"mixed","is_individual":false,"edcs_url":"https://edcs.hist.uzh.ch/en/document?edcs-id=EDCS-09701553","persons":[{"nomen":"Plaetorius","gender":"male","raw_name":"T. Plaetoriu[s] Celer","praenomen":"Titus","cognomen":"Celer"},{"nomen":"Diodora","gender":"female","raw_name":"Diodorae Quintae","cognomen":"Quinta","status":"coniunx karissima"}]}},{"type":"Feature","geometry":{"type":"Point","coordinates":[9.52,42.1]},"properties":{"edcs_id":"EDCS-09701554","findspot":"Aleria","raw_text":"Dis Manibus / L(uci) Manli Felicis / vixit annis XXXX / Flavia Tyche con/iu<g=C>i kariss(imo)","date_from":1,"date_to":300,"marker_gender":"mixed","is_individual":false,"edcs_url":"https://edcs.hist.uzh.ch/en/document?edcs-id=EDCS-09701554","persons":[{"nomen":"Manlius","gender":"male","raw_name":"L. Manli Felicis","praenomen":"Lucius","cognomen":"Felix"},{"nomen":"Flavia","gender":"female","raw_name":"Flavia Tyche","cognomen":"Tyche","status":"coniunx karissima"}]}},{"type":"Feature","geometry":{"type":"Point","coordinates":[8.8,42.17]},"properties":{"edcs_id":"EDCS-09800221","findspot":"Vico","raw_text":"[In honorem san]cti Apiani / iu<v=B>ante d(e)o Paulus fecit","date_from":301,"date_to":500,"marker_gender":"male","is_individual":true,"edcs_url":"https://edcs.hist.uzh.ch/en/document?edcs-id=EDCS-09800221","persons":[{"nomen":"","gender":"male","raw_name":"[In honorem san]cti Apiani","cognomen":"Apianus","status":"sanctus"},{"nomen":"","gender":"male","raw_name":"Paulus","cognomen":"Paulus"}]}},{"type":"Feature","geometry":{"type":"Point","coordinates":[8.86,42.61]},"properties":{"edcs_id":"EDCS-12300220","findspot":"Algajola","raw_text":"Imp(erator) Caes<a=E>r Vespasianus Aug(ustus) p/ontifex max(imus) trib(unicia) pot(estate) II imp(erator) VI [p(ater) p(atriae)] / co(n)sul III desig(natus) IIII veteranis qu[i mi]/litaverunt in classe Misen{i}ense su/b Sex(to) Lucilio Basso qui sena et vicena stipendia aut plura meruerunt et / sunt deducti Paestum quorum nom/ina subscripta sunt ipsis liberis pos/terisque eorum civitatem dedit et co/nubium cum uxoribus quas tunc // habuissent cum est civitas i(i)s d/ata aut si qui caelibes essent {cum / est civitas is data aut si qui caelib/es essent} cum is quas postea duxis/sent dumtaxat singulis(!) singu/las Nonis Aprilibus Caes<a=E>re Aug/usti f(ilio) Domitiano Cn(aeo) Pedio Casco co(n)s(ulibus) / Baslel Turbeli f(ilio) Gallinaria Sarniensis / descriptum et recognitum ex t[abu]la / quae fixa est Romae in Capitolio [in] / podio arae gentis Iuliae / tab(ula) III pag(ina) VI loc(o) XIX // I[mp(erator) Ca]es<a=E>r Vespasianus Aug(ustus) pontifex m[ax(imus)] / t[rib(unicia) pot(estate) II] imp(erator) VI p(ater) p(atriae) co(n)sul III desig(natus) IIII / veteranis qui militaverunt in classe Mi/seniense(!) sub Sex(to) Lucilio Basso qui sena et vi/cena stipendia aut plura meruerunt et / sunt deducti Paestum quorum nomina / subscripta sunt ipsis liberis posterisque e/orum civitatem dedit et conubium cum / uxoribus quas tunc habuissent cum est ci/vitas is data aut si qui caelibes essent cum i(i)s / quas postea duxissent dumtaxat singuli sing(ulas) / Nonis Aprilibus Caes<a=E>re Aug(usti) f(ilio) Domitiano (C)n(aeo) / Pedio Casco co(n)s(ulibus) / Baslel Turbeli f(ilio) <G=C>allinaria Sa/rniensis descriptu(m) et recognitu(m) ex tabula ae/nea quae fixa est Rom(ae) in Cap(itolio) in pod(io) arae gentis / Iuliae tab(ula) III pag(ina) VI loc(o) XIX // Ti(beri) Iuli Fab(iani) Cestiani / C(ai) Iuli Cornel(i) Nigri / M(arci) Valeri Alexsandn(!) / Alexsandri Magni Macedon(is?) / L(uci) Valeri Veri / L(uci) Licini Pudentis / L(uci) Rufini Chaerea[e]","date_from":71,"date_to":71,"marker_gender":"male","is_individual":true,"edcs_url":"https://edcs.hist.uzh.ch/en/document?edcs-id=EDCS-12300220","persons":[{"nomen":"","gender":"male","raw_name":"Imp. Caesar Vespasianus","cognomen":"Vespasianus","status":"Imperator Caesar, pontifex maximus, tribunicia potestate, imperator, pater patriae, consul","is_imperial":true},{"nomen":"Lucilius","gender":"male","raw_name":"Sex. Lucilio Basso","praenomen":"Sextus","cognomen":"Bassus"},{"nomen":"","gender":"male","raw_name":"Domitiano","cognomen":"Domitianus","status":"Augusti filius, consul","is_imperial":true},{"nomen":"Pedius","gender":"male","raw_name":"Cn. Pedio Casco","praenomen":"Gnaeus","cognomen":"Cascus","status":"consul"},{"nomen":"","gender":"male","raw_name":"Baslel Turbeli f.","cognomen":"Baslel","status":"Turbeli filius, tribus: Callinaria"},{"nomen":"Iulius","gender":"male","raw_name":"Ti. Iuli Fabiani Cestiani","praenomen":"Tiberius","cognomen":"Fabianus Cestianus"},{"nomen":"Iulius","gender":"male","raw_name":"C. Iuli Corneli Nigri","praenomen":"Gaius","cognomen":"Cornelius Niger"},{"nomen":"Valerius","gender":"male","raw_name":"M. Valeri Alexsandn","praenomen":"Marcus","cognomen":"Alexsander"},{"nomen":"","gender":"male","raw_name":"Alexsandri Magni Macedonis","cognomen":"Alexander","status":"Magnus Macedo"},{"nomen":"Valerius","gender":"male","raw_name":"L. Valeri Veri","praenomen":"Lucius","cognomen":"Verus","is_imperial":true},{"nomen":"Licinius","gender":"male","raw_name":"L. Licini Pudentis","praenomen":"Lucius","cognomen":"Pudens"},{"nomen":"Rufinius","gender":"male","raw_name":"L. Rufini Chaerae","praenomen":"Lucius","cognomen":"Chaerea"}]}},{"type":"Feature","geometry":{"type":"Point","coordinates":[8.86,42.51]},"properties":{"edcs_id":"EDCS-13301710","findspot":"Calenzana","raw_text":"D(is) M(anibus) / C(aius) Caninius Germanus / veteranus Aug(usti) ex cent(urione) cl(assis) / p(raetoriae) R(avennatis) vixit an(nos) LXXXX fecit / C(aius) Caninius Carpus / patro(no?) b(ene) m(erenti) / et sibi libertis liber/tabusque posterisq(ue) e<o=Q>rum","date_from":1,"date_to":300,"marker_gender":"male","is_individual":false,"edcs_url":"https://edcs.hist.uzh.ch/en/document?edcs-id=EDCS-13301710","persons":[{"nomen":"Caninius","gender":"male","raw_name":"C. Caninius Germanus","praenomen":"Gaius","cognomen":"Germanus","status":"veteranus, centurio classis praetoriae"},{"nomen":"Caninius","gender":"male","raw_name":"C. Caninius Carpus","praenomen":"Gaius","cognomen":"Carpus"}]}},{"type":"Feature","geometry":{"type":"Point","coordinates":[8.86,42.51]},"properties":{"edcs_id":"EDCS-13800116","findspot":"Calenzana","raw_text":"D(is) [M(anibus)] / Solovius Leuc[3] / ordinarius [3] / sacerdotium [","date_from":51,"date_to":200,"marker_gender":"male","is_individual":false,"edcs_url":"https://edcs.hist.uzh.ch/en/document?edcs-id=EDCS-13800116","persons":[{"nomen":"Solovius","gender":"male","raw_name":"Solovius Leuc[3]","cognomen":"Leucus","status":"ordinarius"}]}},{"type":"Feature","geometry":{"type":"Point","coordinates":[9.52,42.1]},"properties":{"edcs_id":"EDCS-14700006","findspot":"Aleria","raw_text":"D(is) M(anibus) s(acrum) / Iunia Tertulla pia hic / sita est quae v(ixit) a(nnos) XXIIII / Apronius Felix mil(es) / cl(assis) pr(aetoriae) P(iae) V(indicis) Mis(enensis) praeco pr(imus?) / coniugi incomp(arabili)","date_from":201,"date_to":250,"marker_gender":"mixed","is_individual":false,"edcs_url":"https://edcs.hist.uzh.ch/en/document?edcs-id=EDCS-14700006","persons":[{"nomen":"Iunia","gender":"female","raw_name":"Iunia Tertulla","cognomen":"Tertulla","status":"pia"},{"nomen":"Apronius","gender":"male","raw_name":"Apronius Felix","cognomen":"Felix","status":"miles classis praetoriae, praeco"}]}},{"type":"Feature","geometry":{"type":"Point","coordinates":[9.51,42.11]},"properties":{"edcs_id":"EDCS-22500812","findspot":"Aleria","raw_text":"C(aio) Caesari / Augusti f(ilio) // Imp(eratori) Caesari di[vi f(ilio)] / Augusto / pontifici maxim[o] / co(n)s(uli) XI imp(eratori) XII[3] / tribun(icia) potest(ate) XII[3] / dec(uriones) et c(oloni) c(oloniae) V(eneriae) P(acensis) R(estitutae) [A(leriae)] / patronis [ // [L(ucio) Caesari] / [Aug(usti) f(ilio)]","date_from":-11,"date_to":-9,"marker_gender":"male","is_individual":false,"edcs_url":"https://edcs.hist.uzh.ch/en/document?edcs-id=EDCS-22500812","persons":[{"nomen":"","gender":"male","raw_name":"C. Caesari","praenomen":"Gaius","cognomen":"Caesar","status":"Augusti filius"},{"nomen":"","gender":"male","raw_name":"Imp. Caesari Augusto","cognomen":"Augustus","status":"Imperator Caesar, divi filius, pontifex maximus, consul, imperator, tribunicia potestas","is_imperial":true,"cluster_confidence":"excluded"},{"nomen":"","gender":"male","raw_name":"[L. Caesari] [Aug. f.]","praenomen":"Lucius","cognomen":"Caesar","status":"Augusti filius"}]}},{"type":"Feature","geometry":{"type":"Point","coordinates":[9.51,42.11]},"properties":{"edcs_id":"EDCS-22500813","findspot":"Aleria","raw_text":"Di{i}s / Manibus sacr(um) / Tettiae Maternae / optimae uxori / L(ucius) Iulius Longinus / proc(urator) Aug(usti)","date_from":79,"date_to":96,"marker_gender":"mixed","is_individual":false,"edcs_url":"https://edcs.hist.uzh.ch/en/document?edcs-id=EDCS-22500813","persons":[{"nomen":"Tettia","gender":"female","raw_name":"Tettiae Maternae","cognomen":"Materna","status":"optima uxor"},{"nomen":"Iulius","gender":"male","raw_name":"L. Iulius Longinus","praenomen":"Lucius","cognomen":"Longinus","status":"procurator Augusti"}]}},{"type":"Feature","geometry":{"type":"Point","coordinates":[9.51,42.11]},"properties":{"edcs_id":"EDCS-22500814","findspot":"Aleria","raw_text":"Flaviae / Mariae / Vetullenus / Calpurnia/nus filius","date_from":1,"date_to":100,"marker_gender":"mixed","is_individual":false,"edcs_url":"https://edcs.hist.uzh.ch/en/document?edcs-id=EDCS-22500814","persons":[{"nomen":"Flavia","gender":"female","raw_name":"Flaviae Mariae","cognomen":"Maria"},{"nomen":"Vetullenus","gender":"male","raw_name":"Vetullenus Calpurnianus","cognomen":"Calpurnianus","status":"filius"}]}},{"type":"Feature","geometry":{"type":"Point","coordinates":[9.48,42.77]},"properties":{"edcs_id":"EDCS-22500815","findspot":"Erbalunga / Vanacini","raw_text":"Imp(erator) Caesar Vespasianus Augustus / magistratibus et senatoribus / Vanacinorum salutem dicit / Otacilium Sagittam amicum et procu/ratorem meum ita vobis praefuisse / ut testimonium vestrum mereretur / delector / de controversia finium quam ha/betis cum Marianis pendenti ex / i(i)s agris quos a procuratore meo / Publilio Memoriale emistis ut / finiret Claudius Clemens procu/rator meus scripsi ei et mensorem / misi / beneficia tributa vobis ab(!) divo / Augusto post septimum consula/tum quae in tempora Galbae reti/nuistis confirmo / egerunt legati / Lasemo Leucani f(ilius) sacerd(os) Aug(usti) / Eunus Tomasi f(ilius) sacerd(os) Aug(usti) / C(aio) Arruntio Catellio Celere M(arco) / Arruntio Aquila co(n)s(ulibus) IIII Idus Octobr(es)","date_from":77,"date_to":77,"marker_gender":"male","is_individual":false,"edcs_url":"https://edcs.hist.uzh.ch/en/document?edcs-id=EDCS-22500815","persons":[{"nomen":"","gender":"male","raw_name":"Imp. Caesar Vespasianus Augustus","cognomen":"Vespasianus","status":"Imperator Caesar Augustus","is_imperial":true},{"nomen":"Otacilius","gender":"male","raw_name":"Otacilium Sagittam","cognomen":"Sagitta","status":"amicus et procurator"},{"nomen":"","gender":"male","raw_name":"Publilio Memoriale","cognomen":"Memorialis","status":"procurator"},{"nomen":"Claudius","gender":"male","raw_name":"Claudius Clemens","cognomen":"Clemens","status":"procurator"},{"nomen":"","gender":"male","raw_name":"Lasemo Leucani f.","cognomen":"Lasemus","status":"sacerdos Augusti"},{"nomen":"","gender":"male","raw_name":"Eunus Tomasi f.","cognomen":"Eunus","status":"sacerdos Augusti"},{"nomen":"Arruntius","gender":"male","raw_name":"C. Arruntio Catellio Celere","praenomen":"Gaius","cognomen":"Catellius Celer","status":"consul"},{"nomen":"Arruntius","gender":"male","raw_name":"M. Arruntio Aquila","praenomen":"Marcus","cognomen":"Aquila","status":"consul"}]}},{"type":"Feature","geometry":{"type":"Point","coordinates":[9.48,42.77]},"properties":{"edcs_id":"EDCS-22500816","findspot":"Erbalunga / Vanacini","raw_text":"Calisto Nieimici / [","date_from":1,"date_to":500,"marker_gender":"male","is_individual":false,"edcs_url":"https://edcs.hist.uzh.ch/en/document?edcs-id=EDCS-22500816","persons":[{"nomen":"","gender":"male","raw_name":"Calisto Nieimici","cognomen":"Calistus"}]}},{"type":"Feature","geometry":{"type":"Point","coordinates":[9.02,42.06]},"properties":{"edcs_id":"EDCS-22500817","findspot":"?","raw_text":"D(is) M(anibus) / C(aio) Baebio Marino / Baebius Martialis / et Baebia Proba / llib(eri) patri pientis(simo)","date_from":51,"date_to":200,"marker_gender":"mixed","is_individual":true,"edcs_url":"https://edcs.hist.uzh.ch/en/document?edcs-id=EDCS-22500817","persons":[{"nomen":"Baebius","gender":"male","raw_name":"C. Baebio Marino","praenomen":"Gaius","cognomen":"Marinus"},{"nomen":"Baebius","gender":"male","raw_name":"Baebius Martialis","cognomen":"Martialis","status":"liberi, filius"},{"nomen":"Baebia","gender":"female","raw_name":"Baebia Proba","cognomen":"Proba","status":"liberi, filia"}]}},{"type":"Feature","geometry":{"type":"Point","coordinates":[9.52,42.1]},"properties":{"edcs_id":"EDCS-22900583","findspot":"Aleria","raw_text":"L(uci) Iegidi","date_from":null,"date_to":null,"marker_gender":"male","is_individual":false,"edcs_url":"https://edcs.hist.uzh.ch/en/document?edcs-id=EDCS-22900583","persons":[{"nomen":"Iegidius","gender":"male","raw_name":"L. Iegidi","praenomen":"Lucius"}]}},{"type":"Feature","geometry":{"type":"Point","coordinates":[9.33,42.85]},"properties":{"edcs_id":"EDCS-23400488","findspot":"Marinca / Mariana","raw_text":"<L=E>(ucius) Gellius Niger mil(es) / ex classe Misen(en)se / mil(itavit) an(nos) XIIX vix(it) / ann(os) XL h(ic) s(itus) est","date_from":1,"date_to":96,"marker_gender":"male","is_individual":false,"edcs_url":"https://edcs.hist.uzh.ch/en/document?edcs-id=EDCS-23400488","persons":[{"nomen":"Gellius","gender":"male","raw_name":"L. Gellius Niger","praenomen":"Lucius","cognomen":"Niger","status":"miles ex classe Misenense"}]}},{"type":"Feature","geometry":{"type":"Point","coordinates":[9.52,42.1]},"properties":{"edcs_id":"EDCS-26700408","findspot":"Aleria","raw_text":"Tetinia[3]","date_from":null,"date_to":null,"marker_gender":"female","is_individual":false,"edcs_url":"https://edcs.hist.uzh.ch/en/document?edcs-id=EDCS-26700408","persons":[{"nomen":"Tetinia","gender":"female","raw_name":"Tetinia[3]"}]}},{"type":"Feature","geometry":{"type":"Point","coordinates":[9.52,42.1]},"properties":{"edcs_id":"EDCS-31800069","findspot":"Aleria","raw_text":"Antonia dulcis bib<e=B> et propina // Pamp(hili) / M(arci) Ver() l(iberti)","date_from":null,"date_to":null,"marker_gender":"mixed","is_individual":false,"edcs_url":"https://edcs.hist.uzh.ch/en/document?edcs-id=EDCS-31800069","persons":[{"nomen":"Antonia","gender":"female","raw_name":"Antonia"},{"nomen":"","gender":"male","raw_name":"Pamp.","cognomen":"Pamphilus","status":"libertus"},{"nomen":"","gender":"male","raw_name":"M. Ver.","praenomen":"Marcus","status":"dominus"}]}},{"type":"Feature","geometry":{"type":"Point","coordinates":[9.51,42.11]},"properties":{"edcs_id":"EDCS-34700135","findspot":"Aleria","raw_text":"D(is) M(anibus) / Fl(avia) Bitalis Mario / Fusciano co(n)iu/gi bene merenti / fecit st<i=V>pendio/rum XXVII","date_from":180,"date_to":230,"marker_gender":"mixed","is_individual":false,"edcs_url":"https://edcs.hist.uzh.ch/en/document?edcs-id=EDCS-34700135","persons":[{"nomen":"Flavia","gender":"female","raw_name":"Fl. Bitalis","cognomen":"Vitalis"},{"nomen":"","gender":"male","raw_name":"Mario Fusciano","praenomen":"Marcus","cognomen":"Fuscianus","status":"coniunx bene merens"}]}},{"type":"Feature","geometry":{"type":"Point","coordinates":[9.51,42.11]},"properties":{"edcs_id":"EDCS-34700136","findspot":"Aleria","raw_text":"D(is) M(anibus) / Domiti(a)e Zonic(a)e / quae vixit ann(os) / plus minus XXX / (F)l(avius) Isidorus coniu/gi b(ene) m(erenti) p(osuit)","date_from":180,"date_to":230,"marker_gender":"mixed","is_individual":false,"edcs_url":"https://edcs.hist.uzh.ch/en/document?edcs-id=EDCS-34700136","persons":[{"nomen":"Domitia","gender":"female","raw_name":"Domiti(a)e Zonic(a)e","cognomen":"Zonica"},{"nomen":"Flavius","gender":"male","raw_name":"Fl. Isidorus","cognomen":"Isidorus","status":"coniunx bene merens"}]}},{"type":"Feature","geometry":{"type":"Point","coordinates":[9.51,42.11]},"properties":{"edcs_id":"EDCS-34700137","findspot":"Aleria","raw_text":"P(ublius) Naevi(us) P(ubli) l(ibertus) Apoll() / P(ublius) Naevi(us) P(ubli) f(ilius) Castor / Naevia P(ubli) l(iberta) Dioclea / et l{e}ibertorum et T(itus) Castor","date_from":-50,"date_to":30,"marker_gender":"mixed","is_individual":false,"edcs_url":"https://edcs.hist.uzh.ch/en/document?edcs-id=EDCS-34700137","persons":[{"nomen":"Naevius","gender":"male","raw_name":"P. Naevi(us) P. l(ibertus) Apoll()","praenomen":"Publius","cognomen":"Apollonius","status":"libertus Publii"},{"nomen":"Naevius","gender":"male","raw_name":"P. Naevi(us) P. f(ilius) Castor","praenomen":"Publius","cognomen":"Castor","status":"filius Publii"},{"nomen":"Naevia","gender":"female","raw_name":"Naevia P. l(iberta) Dioclea","cognomen":"Dioclea","status":"liberta Publii"},{"nomen":"","gender":"male","raw_name":"T. Castor","praenomen":"Titus","cognomen":"Castor"}]}},{"type":"Feature","geometry":{"type":"Point","coordinates":[9.48,42.77]},"properties":{"edcs_id":"EDCS-34700138","findspot":"Erbalunga / Vanacini","raw_text":"Ti(berio) Claudio Caesari / Augusto Germanico / pont(ifici) max(imo) tr(ibunicia) pot(estate) imp(eratori) co(n)s(uli) des(ignato) / Eunus Tati f(ilius) sacerdo[s] / Caesaris de sua pecunia posui[t]","date_from":41,"date_to":41,"marker_gender":"male","is_individual":false,"edcs_url":"https://edcs.hist.uzh.ch/en/document?edcs-id=EDCS-34700138","persons":[{"nomen":"Claudius","gender":"male","raw_name":"Ti. Claudio Caesari Augusto Germanico","praenomen":"Tiberius","cognomen":"Caesar Germanicus","status":"Augustus, pontifex maximus","is_imperial":true},{"nomen":"","gender":"male","raw_name":"Eunus Tati f.","cognomen":"Eunus","status":"sacerdos Caesaris"}]}},{"type":"Feature","geometry":{"type":"Point","coordinates":[9.52,42.1]},"properties":{"edcs_id":"EDCS-36400233","findspot":"Prunelli-di-Fiumorbo","raw_text":"[I]mp(erator) Caesar divi Traiani Parthici f(ilius) div[i] / Nervae nepos Traianus Hadrianus Au[g(ustus)] / pontif(ex) max(imus) trib(unicia) potest(ate) XII / co(n)s(ul) III p(ater) p(atriae) / i(i)s qui militaverunt in classe praeto/ria Misenensi quae est sub Iulio / Frontone sex et viginti stipendi(i)s eme/ritis dimissis honesta missione quo/rum nomina subscripta sunt ipsis li/beris posterisque eorum civitatem / dedit et conubium cum uxoribus quas / tunc habuissent [c]um est civitas iis / data [a]ut si qui caelibes essent cum / iis quas postea duxissent [d]umtaxat / sin[g]ulis singulas a(nte) d(iem) XII K(alendas) Mart(ias) / P(ublio) [I]uven[tio] Celso II Q(uinto) Iulio Balbo co(n)s(ulibus) / ex gregale / M(arco) Cominio Cubesti f(ilio) Vieloni Corso Cobas(io?) / et Taiae fil(iae) eius / et Tatiae fil(iae) eius / descriptum et recognitum ex tabula [a]e/nea quae fixa est Romae in miro pos[t] / templum divi Aug(usti) ad Minervam // [Ti(beri)] Iul[i] Urbani / [C(ai)] Caes[i R]omani / Ti(beri) Claudi M[en]andri / C(ai) Vettieni Modesti / [L(uci)] Attei Atteiani / L(uci) Pul[l]i [Verecundi] / [C(ai)] Vettieni [He]rm[etis] // [Im]p(erator) Caesar divi Traian(i) Parthic(i) f(ilius) divi Nerv[ae] / nepos Traianus Hadrianus Aug(ustus) pontif(ex) max(imus) / trib(unicia) potes(tate) XII co(n)s(ul) III p(ater) p(atriae) / iis qui militaver(unt) in classe praetor(ia) Mis(enensi) / quae est sub Iulio Frontone sex et vi/ginti stip(endiis) emer(itis) dimiss(is) honest(a) missione / quor(um) nomin(a) subscript(a) sunt ipsis liber(is) / poster(isque) eor(um) civit(atem) ded(it) et conub(ium) cum uxor(ibus) / quas tunc hab(uissent) cum est civit(as) iis data / (!) si qui caelib(es) ess(ent) cum iis quas post(ea) dux(issent) / dumtaxat sing(ulis) singul(as) / a(nte) di(em) XII K(alendas) Mart(ias) / [P(ublio)] Iuventio Celso II Q(uinto) Iulio Balbo c[o(n)s(ulibus)] / ex gregale / M(arco) Cominio Cubesti f(ilio) Vieloni Corso Cobas(io?) / et Taiae fil(iae) eius / et Tatiae fil(iae) eius","date_from":129,"date_to":129,"marker_gender":"mixed","is_individual":false,"edcs_url":"https://edcs.hist.uzh.ch/en/document?edcs-id=EDCS-36400233","persons":[{"nomen":"","gender":"male","raw_name":"Imp. Caesar ... Traianus Hadrianus Aug.","cognomen":"Traianus Hadrianus","status":"Imperator Caesar, divi Traiani Parthici filius, divi Nervae nepos, pontifex maximus, tribunicia potestate XII, consul III, pater patriae","is_imperial":true},{"nomen":"Iulius","gender":"male","raw_name":"Iulio Frontone","cognomen":"Fronto","status":"praefectus classis"},{"nomen":"Iuventius","gender":"male","raw_name":"P. [I]uven[tio] Celso","praenomen":"Publius","cognomen":"Celsus","status":"consul"},{"nomen":"Iulius","gender":"male","raw_name":"Q. Iulio Balbo","praenomen":"Quintus","cognomen":"Balbus","status":"consul"},{"nomen":"Cominius","gender":"male","raw_name":"M. Cominio Cubesti f. Vieloni Corso Cobas.","praenomen":"Marcus","cognomen":"Vielon","status":"gregalis, filius Cubestis, Corsus, Cobasius"},{"nomen":"","gender":"female","raw_name":"Taiae","cognomen":"Taia"},{"nomen":"","gender":"female","raw_name":"Tatiae","cognomen":"Tatia"},{"nomen":"Iulius","gender":"male","raw_name":"[Ti.] Iul. Urbani","praenomen":"Tiberius","cognomen":"Urbanus"},{"nomen":"Caesius","gender":"male","raw_name":"[C.] Caes. [R]omani","praenomen":"Gaius","cognomen":"Romanus"},{"nomen":"Claudius","gender":"male","raw_name":"Ti. Claudi M[en]andri","praenomen":"Tiberius","cognomen":"Menander"},{"nomen":"Vettienus","gender":"male","raw_name":"C. Vettieni Modesti","praenomen":"Gaius","cognomen":"Modestus"},{"nomen":"Atteius","gender":"male","raw_name":"[L.] Attei Atteiani","praenomen":"Lucius","cognomen":"Atteianus"},{"nomen":"Pullius","gender":"male","raw_name":"L. Pul[l]i [Verecundi]","praenomen":"Lucius","cognomen":"Verecundus"},{"nomen":"Vettienus","gender":"male","raw_name":"[C.] Vettieni [He]rm[etis]","praenomen":"Gaius","cognomen":"Hermes"}]}},{"type":"Feature","geometry":null,"properties":{"edcs_id":"EDCS-44400153","findspot":"Luri","raw_text":"O() Ioni Miltin[","date_from":null,"date_to":null,"marker_gender":"male","is_individual":true,"edcs_url":"https://edcs.hist.uzh.ch/en/document?edcs-id=EDCS-44400153","persons":[{"nomen":"","gender":"male","raw_name":"Miltin[","cognomen":"Miltinus"}]}},{"type":"Feature","geometry":{"type":"Point","coordinates":[9.41,43.02]},"properties":{"edcs_id":"EDCS-51400898","findspot":"Giraglia, Ile de la","raw_text":"]ptes / Pira(ni) Cer(donis) s(ervus) f(ecit)","date_from":20,"date_to":20,"marker_gender":"male","is_individual":true,"edcs_url":"https://edcs.hist.uzh.ch/en/document?edcs-id=EDCS-51400898","persons":[{"nomen":"","gender":"male","raw_name":"Pira(ni) Cer(donis)","cognomen":"Cerdon","status":"servus"}]}},{"type":"Feature","geometry":{"type":"Point","coordinates":[8.87,42.13]},"properties":{"edcs_id":"EDCS-69200245","findspot":"Rosazia","raw_text":"Dis Manibus sacru[m] / Epaphrodito Phoebill[a] / conservo bene mer[en(ti)] / fecit","date_from":1,"date_to":100,"marker_gender":"mixed","is_individual":true,"edcs_url":"https://edcs.hist.uzh.ch/en/document?edcs-id=EDCS-69200245","persons":[{"nomen":"","gender":"male","raw_name":"Epaphrodito","cognomen":"Epaphroditus"},{"nomen":"","gender":"female","raw_name":"Phoebill[a] conservo","cognomen":"Phoebilla","status":"conservus bene merens"}]}},{"type":"Feature","geometry":{"type":"Point","coordinates":[9.51,42.11]},"properties":{"edcs_id":"EDCS-69200255","findspot":"Aleria","raw_text":"Co]nstan[","date_from":306,"date_to":361,"marker_gender":"male","is_individual":false,"edcs_url":"https://edcs.hist.uzh.ch/en/document?edcs-id=EDCS-69200255","persons":[{"nomen":"","gender":"male","raw_name":"Co]nstan[","cognomen":"Constans"}]}},{"type":"Feature","geometry":{"type":"Point","coordinates":[9.51,42.11]},"properties":{"edcs_id":"EDCS-69200264","findspot":"Aleria","raw_text":"A(ulo) Petr[3] VIviro] / August[ali 3] / Scutaria [3] / Scutari [3] / viro suo","date_from":151,"date_to":250,"marker_gender":"mixed","is_individual":false,"edcs_url":"https://edcs.hist.uzh.ch/en/document?edcs-id=EDCS-69200264","persons":[{"nomen":"Petronius","gender":"male","raw_name":"A. Petr[3] VIvir August[ali 3]","praenomen":"Aulus","status":"VIvir Augustalis"},{"nomen":"","gender":"female","raw_name":"Scutaria [3]","cognomen":"Scutaria"},{"nomen":"","gender":"male","raw_name":"Scutari [3]","cognomen":"Scutarius","status":"vir"}]}},{"type":"Feature","geometry":{"type":"Point","coordinates":[9.51,42.11]},"properties":{"edcs_id":"EDCS-69200270","findspot":"Aleria","raw_text":"] Cla[","date_from":1,"date_to":300,"marker_gender":"unknown","is_individual":false,"edcs_url":"https://edcs.hist.uzh.ch/en/document?edcs-id=EDCS-69200270","persons":[{"nomen":"Cla","gender":"unknown","raw_name":"Cla["}]}},{"type":"Feature","geometry":{"type":"Point","coordinates":[9.51,42.11]},"properties":{"edcs_id":"EDCS-69200277","findspot":"Aleria","raw_text":"]RC[3] / [3] C(ai) f(ilio) Irsio / [3] fecit / [","date_from":1,"date_to":300,"marker_gender":"male","is_individual":false,"edcs_url":"https://edcs.hist.uzh.ch/en/document?edcs-id=EDCS-69200277","persons":[{"nomen":"","gender":"male","raw_name":"C. f. Irsio","praenomen":"Gaius","cognomen":"Irsius","status":"filius"}]}},{"type":"Feature","geometry":{"type":"Point","coordinates":[9.51,42.11]},"properties":{"edcs_id":"EDCS-69200281","findspot":"Aleria","raw_text":"]c Eros(?) m[3] / [3]pi [","date_from":1,"date_to":300,"marker_gender":"male","is_individual":false,"edcs_url":"https://edcs.hist.uzh.ch/en/document?edcs-id=EDCS-69200281","persons":[{"nomen":"","gender":"male","raw_name":"Eros","cognomen":"Eros"}]}},{"type":"Feature","geometry":{"type":"Point","coordinates":[9.51,42.11]},"properties":{"edcs_id":"EDCS-69200282","findspot":"Aleria","raw_text":"D(is) M(anibus) / Euphro/synes","date_from":151,"date_to":200,"marker_gender":"female","is_individual":false,"edcs_url":"https://edcs.hist.uzh.ch/en/document?edcs-id=EDCS-69200282","persons":[{"nomen":"","gender":"female","raw_name":"Euphrosynes","cognomen":"Euphrosyne"}]}},{"type":"Feature","geometry":{"type":"Point","coordinates":[9.51,42.11]},"properties":{"edcs_id":"EDCS-69200283","findspot":"Aleria","raw_text":"D(is) M(anibus) / [F]rontoni f(ilio) / piissimo / parentes / v(ixit) a(nnos) XVII","date_from":1,"date_to":200,"marker_gender":"male","is_individual":false,"edcs_url":"https://edcs.hist.uzh.ch/en/document?edcs-id=EDCS-69200283","persons":[{"nomen":"","gender":"male","raw_name":"[F]rontoni","cognomen":"Fronto","status":"filius piissimus"}]}},{"type":"Feature","geometry":{"type":"Point","coordinates":[9.42,42.55]},"properties":{"edcs_id":"EDCS-69200292","findspot":"Lucciana / Mariana","raw_text":"] / Iulia / Ti(beri) f(ilia) [3] / [3] cu[ravit(?)","date_from":1,"date_to":100,"marker_gender":"female","is_individual":false,"edcs_url":"https://edcs.hist.uzh.ch/en/document?edcs-id=EDCS-69200292","persons":[{"nomen":"Iulia","gender":"female","raw_name":"Iulia Ti(beri) f(ilia)","status":"filia Tiberii"}]}},{"type":"Feature","geometry":{"type":"Point","coordinates":[9.42,42.55]},"properties":{"edcs_id":"EDCS-69200294","findspot":"Lucciana / Mariana","raw_text":"Mater Corsa // Marcus Numisius Dionysius / [","date_from":null,"date_to":null,"marker_gender":"male","is_individual":false,"edcs_url":"https://edcs.hist.uzh.ch/en/document?edcs-id=EDCS-69200294","persons":[{"nomen":"Numisius","gender":"male","raw_name":"Marcus Numisius Dionysius","praenomen":"Marcus","cognomen":"Dionysius"}]}},{"type":"Feature","geometry":{"type":"Point","coordinates":[9.42,42.55]},"properties":{"edcs_id":"EDCS-69200296","findspot":"Lucciana / Mariana","raw_text":"T(itus?) L[3] / [a]edi[lis(?)","date_from":1,"date_to":300,"marker_gender":"male","is_individual":false,"edcs_url":"https://edcs.hist.uzh.ch/en/document?edcs-id=EDCS-69200296","persons":[{"nomen":"","gender":"male","raw_name":"T. L[3]   [a]edi[lis]","praenomen":"Titus","status":"aedilis"}]}},{"type":"Feature","geometry":{"type":"Point","coordinates":[9.42,42.55]},"properties":{"edcs_id":"EDCS-69200301","findspot":"Lucciana / Mariana","raw_text":"] M(arcus?) Num[3] / [3] fili() [","date_from":1,"date_to":300,"marker_gender":"male","is_individual":false,"edcs_url":"https://edcs.hist.uzh.ch/en/document?edcs-id=EDCS-69200301","persons":[{"nomen":"Numisius","gender":"male","raw_name":"M. Num[3]","praenomen":"Marcus"}]}},{"type":"Feature","geometry":{"type":"Point","coordinates":[9.42,42.55]},"properties":{"edcs_id":"EDCS-69200302","findspot":"Lucciana / Mariana","raw_text":"L(ucius) Sergius [3] / M(arco) Cornel[io 3] / amico [","date_from":null,"date_to":null,"marker_gender":"male","is_individual":false,"edcs_url":"https://edcs.hist.uzh.ch/en/document?edcs-id=EDCS-69200302","persons":[{"nomen":"Sergius","gender":"male","raw_name":"L. Sergius [3]","praenomen":"Lucius"},{"nomen":"Cornelius","gender":"male","raw_name":"M. Cornel[io 3]","praenomen":"Marcus","status":"amicus"}]}},{"type":"Feature","geometry":{"type":"Point","coordinates":[9.42,42.55]},"properties":{"edcs_id":"EDCS-69200303","findspot":"Lucciana / Mariana","raw_text":"]SCI[3] / [3] Hilara / [","date_from":null,"date_to":null,"marker_gender":"female","is_individual":false,"edcs_url":"https://edcs.hist.uzh.ch/en/document?edcs-id=EDCS-69200303","persons":[{"nomen":"","gender":"female","raw_name":"Hilara","cognomen":"Hilara"}]}},{"type":"Feature","geometry":{"type":"Point","coordinates":[9.42,42.55]},"properties":{"edcs_id":"EDCS-69200305","findspot":"Lucciana / Mariana","raw_text":"L(ucius) Lartidi[us(?) 3] / [3] f(ili) [","date_from":1,"date_to":300,"marker_gender":"male","is_individual":false,"edcs_url":"https://edcs.hist.uzh.ch/en/document?edcs-id=EDCS-69200305","persons":[{"nomen":"Lartidius","gender":"male","raw_name":"L. Lartidi[us(?) 3]","praenomen":"Lucius"}]}},{"type":"Feature","geometry":{"type":"Point","coordinates":[9.42,42.55]},"properties":{"edcs_id":"EDCS-69200306","findspot":"Lucciana / Mariana","raw_text":"L(ucius) Valeriu[s 3] / Crispus a[","date_from":null,"date_to":null,"marker_gender":"male","is_individual":false,"edcs_url":"https://edcs.hist.uzh.ch/en/document?edcs-id=EDCS-69200306","persons":[{"nomen":"Valerius","gender":"male","raw_name":"L. Valeriu[s 3] Crispus a[","praenomen":"Lucius","cognomen":"Crispus"}]}},{"type":"Feature","geometry":{"type":"Point","coordinates":[9.42,42.55]},"properties":{"edcs_id":"EDCS-69200310","findspot":"Lucciana / Mariana","raw_text":"Cottus L(uci) Pisoni / in Corsica // Xanti","date_from":1,"date_to":50,"marker_gender":"male","is_individual":false,"edcs_url":"https://edcs.hist.uzh.ch/en/document?edcs-id=EDCS-69200310","persons":[{"nomen":"","gender":"male","raw_name":"Cottus","cognomen":"Cottus"},{"nomen":"","gender":"male","raw_name":"L. Pisoni","praenomen":"Lucius","cognomen":"Piso"},{"nomen":"","gender":"male","raw_name":"Xanti","cognomen":"Xantus","cluster_id":97,"cluster_size":2,"cluster_confidence":"low"}]}},{"type":"Feature","geometry":{"type":"Point","coordinates":[9.36,42.61]},"properties":{"edcs_id":"EDCS-69200311","findspot":"Olmeta-di-Tuda","raw_text":"D(is) M(anibus) / Vulcacio / Hospiti / patri","date_from":51,"date_to":200,"marker_gender":"male","is_individual":true,"edcs_url":"https://edcs.hist.uzh.ch/en/document?edcs-id=EDCS-69200311","persons":[{"nomen":"Vulcacius","gender":"male","raw_name":"Vulcacio Hospiti","cognomen":"Hospes","status":"pater"}]}},{"type":"Feature","geometry":{"type":"Point","coordinates":[9.28,42.46]},"properties":{"edcs_id":"EDCS-69200314","findspot":"Valle-di-Rostino","raw_text":"D(is) M(anibus) / A[e]gn[atiae] / Marcr[i]nae / q(uo)nd(a)m [nomi]/ne [i]acet e<x=G>siste / re funct(a)e / vixit [annos 3]","date_from":301,"date_to":400,"marker_gender":"female","is_individual":true,"edcs_url":"https://edcs.hist.uzh.ch/en/document?edcs-id=EDCS-69200314","persons":[{"nomen":"Aegnatia","gender":"female","raw_name":"A[e]gn[atiae] Marcr[i]nae","cognomen":"Marcrina"}]}},{"type":"Feature","geometry":{"type":"Point","coordinates":[9.16,41.39]},"properties":{"edcs_id":"EDCS-71200607","findspot":"Bonifacio","raw_text":"C(aius) Iun(ius) Drac(o)","date_from":null,"date_to":null,"marker_gender":"male","is_individual":false,"edcs_url":"https://edcs.hist.uzh.ch/en/document?edcs-id=EDCS-71200607","persons":[{"nomen":"Iunius","gender":"male","raw_name":"C(aius) Iun(ius) Drac(o)","praenomen":"Gaius","cognomen":"Draco"}]}},{"type":"Feature","geometry":{"type":"Point","coordinates":[9.52,42.1]},"properties":{"edcs_id":"EDCS-71200623","findspot":"Aleria","raw_text":"M(arcus?) Sex[3] / Din[","date_from":null,"date_to":null,"marker_gender":"male","is_individual":false,"edcs_url":"https://edcs.hist.uzh.ch/en/document?edcs-id=EDCS-71200623","persons":[{"nomen":"","gender":"male","raw_name":"M. Sex[3]","praenomen":"Marcus","cognomen":"Sex"},{"nomen":"","gender":"unknown","raw_name":"Din[","cognomen":"Din"}]}},{"type":"Feature","geometry":{"type":"Point","coordinates":[9.51,42.11]},"properties":{"edcs_id":"EDCS-71200625","findspot":"Aleria","raw_text":"L(ucius?) B[","date_from":51,"date_to":200,"marker_gender":"male","is_individual":false,"edcs_url":"https://edcs.hist.uzh.ch/en/document?edcs-id=EDCS-71200625","persons":[{"nomen":"","gender":"male","raw_name":"L. B[","praenomen":"Lucius","cognomen":"B"}]}},{"type":"Feature","geometry":{"type":"Point","coordinates":[9.51,42.11]},"properties":{"edcs_id":"EDCS-71200626","findspot":"Aleria","raw_text":"Va[","date_from":101,"date_to":300,"marker_gender":"unknown","is_individual":false,"edcs_url":"https://edcs.hist.uzh.ch/en/document?edcs-id=EDCS-71200626","persons":[{"nomen":"Va","gender":"unknown","raw_name":"Va["}]}},{"type":"Feature","geometry":{"type":"Point","coordinates":[9.51,42.11]},"properties":{"edcs_id":"EDCS-71200627","findspot":"Aleria","raw_text":"C(aius?) A[","date_from":51,"date_to":300,"marker_gender":"male","is_individual":false,"edcs_url":"https://edcs.hist.uzh.ch/en/document?edcs-id=EDCS-71200627","persons":[{"nomen":"","gender":"male","raw_name":"C. A[","praenomen":"Caius","cognomen":"A"}]}},{"type":"Feature","geometry":{"type":"Point","coordinates":[9.51,42.11]},"properties":{"edcs_id":"EDCS-71200629","findspot":"Aleria","raw_text":"D(is) M(anibus) / [3]dio M[3] / [3] Cla[udio(?)","date_from":51,"date_to":200,"marker_gender":"male","is_individual":false,"edcs_url":"https://edcs.hist.uzh.ch/en/document?edcs-id=EDCS-71200629","persons":[{"nomen":"","gender":"male","raw_name":"[3]dio","cognomen":"dius"},{"nomen":"Claudius","gender":"male","raw_name":"Cla[udio"}]}},{"type":"Feature","geometry":{"type":"Point","coordinates":[9.51,42.11]},"properties":{"edcs_id":"EDCS-71200630","findspot":"Aleria","raw_text":"F]undan[3] / [3]alis Lo[","date_from":51,"date_to":200,"marker_gender":"male","is_individual":false,"edcs_url":"https://edcs.hist.uzh.ch/en/document?edcs-id=EDCS-71200630","persons":[{"nomen":"","gender":"male","raw_name":"F]undan[3]","cognomen":"Fundanus"},{"nomen":"","gender":"unknown","raw_name":"[3]alis","cognomen":"alis"}]}},{"type":"Feature","geometry":{"type":"Point","coordinates":[9.52,42.1]},"properties":{"edcs_id":"EDCS-71200641","findspot":"Aleria","raw_text":"L(uci) Cae(cili) Sae(cularis)","date_from":null,"date_to":null,"marker_gender":"male","is_individual":false,"edcs_url":"https://edcs.hist.uzh.ch/en/document?edcs-id=EDCS-71200641","persons":[{"nomen":"Caecilius","gender":"male","raw_name":"L. Cae. Sae.","praenomen":"Lucius","cognomen":"Saecularis"}]}},{"type":"Feature","geometry":{"type":"Point","coordinates":[9.52,42.1]},"properties":{"edcs_id":"EDCS-71200642","findspot":"Aleria","raw_text":"L(uci) Iegidi","date_from":null,"date_to":null,"marker_gender":"male","is_individual":false,"edcs_url":"https://edcs.hist.uzh.ch/en/document?edcs-id=EDCS-71200642","persons":[{"nomen":"Iegidius","gender":"male","raw_name":"L. Iegidi","praenomen":"Lucius"}]}},{"type":"Feature","geometry":{"type":"Point","coordinates":[9.52,42.1]},"properties":{"edcs_id":"EDCS-71200643","findspot":"Aleria","raw_text":"Chres(imi)","date_from":null,"date_to":null,"marker_gender":"male","is_individual":false,"edcs_url":"https://edcs.hist.uzh.ch/en/document?edcs-id=EDCS-71200643","persons":[{"nomen":"","gender":"male","raw_name":"Chres(imi)","cognomen":"Chresimus"}]}},{"type":"Feature","geometry":{"type":"Point","coordinates":[9.52,42.1]},"properties":{"edcs_id":"EDCS-71200646","findspot":"Aleria","raw_text":"S(exti) M() C()","date_from":null,"date_to":null,"marker_gender":"male","is_individual":false,"edcs_url":"https://edcs.hist.uzh.ch/en/document?edcs-id=EDCS-71200646","persons":[{"nomen":"","gender":"male","raw_name":"S(exti)","praenomen":"Sextus"}]}},{"type":"Feature","geometry":{"type":"Point","coordinates":[9.52,42.1]},"properties":{"edcs_id":"EDCS-71200647","findspot":"Aleria","raw_text":"L(uci) M() Cal()","date_from":null,"date_to":null,"marker_gender":"male","is_individual":false,"edcs_url":"https://edcs.hist.uzh.ch/en/document?edcs-id=EDCS-71200647","persons":[{"nomen":"","gender":"male","raw_name":"L(uci)","praenomen":"Lucius"}]}},{"type":"Feature","geometry":{"type":"Point","coordinates":[9.52,42.1]},"properties":{"edcs_id":"EDCS-71200650","findspot":"Aleria","raw_text":"[F]av[or] Cn(aei) Domiti s(ervus) f(ecit)","date_from":null,"date_to":null,"marker_gender":"male","is_individual":false,"edcs_url":"https://edcs.hist.uzh.ch/en/document?edcs-id=EDCS-71200650","persons":[{"nomen":"","gender":"male","raw_name":"[F]av[or]","cognomen":"Favor","status":"servus Gnaei Domitii"},{"nomen":"Domitius","gender":"male","raw_name":"Cn(aei) Domiti","praenomen":"Gnaeus","status":"dominus"}]}},{"type":"Feature","geometry":{"type":"Point","coordinates":[9.52,42.1]},"properties":{"edcs_id":"EDCS-71200655","findspot":"Aleria","raw_text":"L(ucius) Noni(us) fec(it)","date_from":null,"date_to":null,"marker_gender":"male","is_individual":false,"edcs_url":"https://edcs.hist.uzh.ch/en/document?edcs-id=EDCS-71200655","persons":[{"nomen":"Nonius","gender":"male","raw_name":"L(ucius) Noni(us)","praenomen":"Lucius"}]}},{"type":"Feature","geometry":{"type":"Point","coordinates":[9.52,42.1]},"properties":{"edcs_id":"EDCS-71200656","findspot":"Aleria","raw_text":"L(uci) N() F()","date_from":null,"date_to":null,"marker_gender":"male","is_individual":false,"edcs_url":"https://edcs.hist.uzh.ch/en/document?edcs-id=EDCS-71200656","persons":[{"nomen":"","gender":"male","raw_name":"L(uci)","praenomen":"Lucius"}]}},{"type":"Feature","geometry":{"type":"Point","coordinates":[9.52,42.1]},"properties":{"edcs_id":"EDCS-71200658","findspot":"Aleria","raw_text":"P(ubli) Antei Rufi","date_from":null,"date_to":null,"marker_gender":"male","is_individual":false,"edcs_url":"https://edcs.hist.uzh.ch/en/document?edcs-id=EDCS-71200658","persons":[{"nomen":"Anteius","gender":"male","raw_name":"P. Antei Rufi","praenomen":"Publius","cognomen":"Rufus"}]}},{"type":"Feature","geometry":{"type":"Point","coordinates":[9.42,42.55]},"properties":{"edcs_id":"EDCS-71200668","findspot":"Lucciana / Mariana","raw_text":"L(ucius?) [","date_from":1,"date_to":300,"marker_gender":"male","is_individual":false,"edcs_url":"https://edcs.hist.uzh.ch/en/document?edcs-id=EDCS-71200668","persons":[{"nomen":"","gender":"male","raw_name":"L. [","praenomen":"Lucius"}]}},{"type":"Feature","geometry":{"type":"Point","coordinates":[9.42,42.55]},"properties":{"edcs_id":"EDCS-71200671","findspot":"Lucciana / Mariana","raw_text":"[D(is)] M(anibus) / M(arco) [3]tro / mater","date_from":1,"date_to":200,"marker_gender":"male","is_individual":false,"edcs_url":"https://edcs.hist.uzh.ch/en/document?edcs-id=EDCS-71200671","persons":[{"nomen":"","gender":"male","raw_name":"M. [3]tro","praenomen":"Marcus"}]}},{"type":"Feature","geometry":{"type":"Point","coordinates":[9.42,42.55]},"properties":{"edcs_id":"EDCS-71200672","findspot":"Lucciana / Mariana","raw_text":"Xanti","date_from":null,"date_to":null,"marker_gender":"male","is_individual":false,"edcs_url":"https://edcs.hist.uzh.ch/en/document?edcs-id=EDCS-71200672","persons":[{"nomen":"","gender":"male","raw_name":"Xanti","cognomen":"Xantus","cluster_id":97,"cluster_size":2,"cluster_confidence":"low"}]}},{"type":"Feature","geometry":{"type":"Point","coordinates":[9.42,42.55]},"properties":{"edcs_id":"EDCS-71200675","findspot":"Lucciana / Mariana","raw_text":"Dol(iare) Anterotis Sever[i(ani)] / Caesaris n(ostri)","date_from":null,"date_to":null,"marker_gender":"male","is_individual":false,"edcs_url":"https://edcs.hist.uzh.ch/en/document?edcs-id=EDCS-71200675","persons":[{"nomen":"","gender":"male","raw_name":"Anterotis","cognomen":"Anteros","status":"servus Caesaris","cluster_id":98,"cluster_size":2,"cluster_confidence":"low"},{"nomen":"","gender":"male","raw_name":"Sever[i(ani)]","cognomen":"Severianus","status":"servus Caesaris","cluster_id":99,"cluster_size":2,"cluster_confidence":"low"}]}},{"type":"Feature","geometry":{"type":"Point","coordinates":[9.42,42.55]},"properties":{"edcs_id":"EDCS-71200677","findspot":"Lucciana / Mariana","raw_text":"Dol(iare) Anterot[is S]everi(ani) / Caesaris n(ostri)","date_from":null,"date_to":null,"marker_gender":"male","is_individual":false,"edcs_url":"https://edcs.hist.uzh.ch/en/document?edcs-id=EDCS-71200677","persons":[{"nomen":"","gender":"male","raw_name":"Anterot[is","cognomen":"Anteros","status":"servus Caesaris","cluster_id":98,"cluster_size":2,"cluster_confidence":"low"},{"nomen":"","gender":"male","raw_name":"S]everi(ani)","cognomen":"Severianus","status":"servus Caesaris","cluster_id":99,"cluster_size":2,"cluster_confidence":"low"}]}},{"type":"Feature","geometry":null,"properties":{"edcs_id":"EDCS-71200686","findspot":"Urtaca","raw_text":"Atti","date_from":null,"date_to":null,"marker_gender":"male","is_individual":true,"edcs_url":"https://edcs.hist.uzh.ch/en/document?edcs-id=EDCS-71200686","persons":[{"nomen":"","gender":"male","raw_name":"Atti","cognomen":"Attius"}]}},{"type":"Feature","geometry":{"type":"Point","coordinates":[9.52,42.1]},"properties":{"edcs_id":"EDCS-79100208","findspot":"Aleria","raw_text":"I() A() S() T() // [P]apiri Romani S()","date_from":null,"date_to":null,"marker_gender":"male","is_individual":false,"edcs_url":"https://edcs.hist.uzh.ch/en/document?edcs-id=EDCS-79100208","persons":[{"nomen":"Papirius","gender":"male","raw_name":"[P]apiri Romani","cognomen":"Romanus"}]}}]}